{
  "type": "FeatureCollection",
  "features": [
    {
      "type": "Feature",
      "properties": {
        "norad_id": 66411,
        "name": "ZK-1A R/B",
        "group": "last-30-days",
        "lat": 66.38951475761019,
        "lon": -110.20177905436837,
        "alt_km": 685.5399340204913,
        "timestamp": "2025-12-08T17:43:03.630884+00:00",
        "meta_object_name": "ZK-1A R/B",
        "meta_object_id": "2025-256C",
        "meta_epoch": "2025-12-08T04:24:35.439264",
        "meta_mean_motion": 15.0182211,
        "meta_eccentricity": 0.02287683,
        "meta_inclination": 98.3227,
        "meta_ra_of_asc_node": 49.6365,
        "meta_arg_of_pericenter": 260.1899,
        "meta_mean_anomaly": 97.3425,
        "meta_ephemeris_type": 0,
        "meta_classification_type": "U",
        "meta_norad_cat_id": 66411,
        "meta_element_set_no": 999,
        "meta_rev_at_epoch": 436,
        "meta_bstar": 0.00077387769,
        "meta_mean_motion_dot": 0.00017808,
        "meta_mean_motion_ddot": 0,
        "tle_line1": "1 66411U 25256C   25342.18374351  .00017808  00000+0  77388-3 0  9995",
        "tle_line2": "2 66411  98.3227  49.6365 0228768 260.1899  97.3425 15.01822110  4366"
      },
      "geometry": {
        "type": "Point",
        "coordinates": [
          -110.20177905436837,
          66.38951475761019
        ]
      }
    },
    {
      "type": "Feature",
      "properties": {
        "norad_id": 66412,
        "name": "HULIANWANG DIGUI 13A",
        "group": "last-30-days",
        "lat": 31.38671263580547,
        "lon": 68.06235517988873,
        "alt_km": 824.0742984110266,
        "timestamp": "2025-12-08T17:43:03.630895+00:00",
        "meta_object_name": "HULIANWANG DIGUI 13A",
        "meta_object_id": "2025-258A",
        "meta_epoch": "2025-12-08T00:11:39.681024",
        "meta_mean_motion": 14.20757093,
        "meta_eccentricity": 0.00085136,
        "meta_inclination": 50.0048,
        "meta_ra_of_asc_node": 281.9293,
        "meta_arg_of_pericenter": 341.2145,
        "meta_mean_anomaly": 18.8451,
        "meta_ephemeris_type": 0,
        "meta_classification_type": "U",
        "meta_norad_cat_id": 66412,
        "meta_element_set_no": 999,
        "meta_rev_at_epoch": 398,
        "meta_bstar": 0.00029140461,
        "meta_mean_motion_dot": 4.75e-06,
        "meta_mean_motion_ddot": 0,
        "tle_line1": "1 66412U 25258A   25342.00809816  .00000475  00000+0  29140-3 0  9993",
        "tle_line2": "2 66412  50.0048 281.9293 0008513 341.2145  18.8451 14.20757093  3984"
      },
      "geometry": {
        "type": "Point",
        "coordinates": [
          68.06235517988873,
          31.38671263580547
        ]
      }
    },
    {
      "type": "Feature",
      "properties": {
        "norad_id": 66413,
        "name": "HULIANWANG DIGUI 13B",
        "group": "last-30-days",
        "lat": 49.97406023252121,
        "lon": 7.554749258874177,
        "alt_km": 819.8106973632439,
        "timestamp": "2025-12-08T17:43:03.630906+00:00",
        "meta_object_name": "HULIANWANG DIGUI 13B",
        "meta_object_id": "2025-258B",
        "meta_epoch": "2025-12-08T02:05:57.458112",
        "meta_mean_motion": 14.19998456,
        "meta_eccentricity": 0.00070509,
        "meta_inclination": 50.0003,
        "meta_ra_of_asc_node": 281.6665,
        "meta_arg_of_pericenter": 340.2899,
        "meta_mean_anomaly": 19.7739,
        "meta_ephemeris_type": 0,
        "meta_classification_type": "U",
        "meta_norad_cat_id": 66413,
        "meta_element_set_no": 999,
        "meta_rev_at_epoch": 399,
        "meta_bstar": 0.00045858868,
        "meta_mean_motion_dot": 8.24e-06,
        "meta_mean_motion_ddot": 0,
        "tle_line1": "1 66413U 25258B   25342.08747058  .00000824  00000+0  45859-3 0  9994",
        "tle_line2": "2 66413  50.0003 281.6665 0007050 340.2899  19.7739 14.19998456  3994"
      },
      "geometry": {
        "type": "Point",
        "coordinates": [
          7.554749258874177,
          49.97406023252121
        ]
      }
    },
    {
      "type": "Feature",
      "properties": {
        "norad_id": 66414,
        "name": "HULIANWANG DIGUI 13C",
        "group": "last-30-days",
        "lat": 46.82063529931371,
        "lon": 35.468323510848656,
        "alt_km": 821.4627637650465,
        "timestamp": "2025-12-08T17:43:03.630917+00:00",
        "meta_object_name": "HULIANWANG DIGUI 13C",
        "meta_object_id": "2025-258C",
        "meta_epoch": "2025-12-08T02:00:53.483040",
        "meta_mean_motion": 14.20292388,
        "meta_eccentricity": 0.0007624,
        "meta_inclination": 50.0035,
        "meta_ra_of_asc_node": 281.6716,
        "meta_arg_of_pericenter": 333.8102,
        "meta_mean_anomaly": 26.2423,
        "meta_ephemeris_type": 0,
        "meta_classification_type": "U",
        "meta_norad_cat_id": 66414,
        "meta_element_set_no": 999,
        "meta_rev_at_epoch": 399,
        "meta_bstar": 0.0004502369,
        "meta_mean_motion_dot": 8.11e-06,
        "meta_mean_motion_ddot": 0,
        "tle_line1": "1 66414U 25258C   25342.08395235  .00000811  00000+0  45024-3 0  9991",
        "tle_line2": "2 66414  50.0035 281.6716 0007624 333.8102  26.2423 14.20292388  3995"
      },
      "geometry": {
        "type": "Point",
        "coordinates": [
          35.468323510848656,
          46.82063529931371
        ]
      }
    },
    {
      "type": "Feature",
      "properties": {
        "norad_id": 66415,
        "name": "HULIANWANG DIGUI 13D",
        "group": "last-30-days",
        "lat": 24.546849242551062,
        "lon": 76.30735743004585,
        "alt_km": 824.7242035890749,
        "timestamp": "2025-12-08T17:43:03.630928+00:00",
        "meta_object_name": "HULIANWANG DIGUI 13D",
        "meta_object_id": "2025-258D",
        "meta_epoch": "2025-12-08T00:09:03.445632",
        "meta_mean_motion": 14.21036271,
        "meta_eccentricity": 0.00088568,
        "meta_inclination": 50.0085,
        "meta_ra_of_asc_node": 281.917,
        "meta_arg_of_pericenter": 344.803,
        "meta_mean_anomaly": 15.2614,
        "meta_ephemeris_type": 0,
        "meta_classification_type": "U",
        "meta_norad_cat_id": 66415,
        "meta_element_set_no": 999,
        "meta_rev_at_epoch": 398,
        "meta_bstar": 0.00027618013,
        "meta_mean_motion_dot": 4.45e-06,
        "meta_mean_motion_ddot": 0,
        "tle_line1": "1 66415U 25258D   25342.00628988  .00000445  00000+0  27618-3 0  9990",
        "tle_line2": "2 66415  50.0085 281.9170 0008856 344.8030  15.2614 14.21036271  3985"
      },
      "geometry": {
        "type": "Point",
        "coordinates": [
          76.30735743004585,
          24.546849242551062
        ]
      }
    },
    {
      "type": "Feature",
      "properties": {
        "norad_id": 66416,
        "name": "HULIANWANG DIGUI 13E",
        "group": "last-30-days",
        "lat": 42.35122630318996,
        "lon": 48.98265026843087,
        "alt_km": 821.3634492625197,
        "timestamp": "2025-12-08T17:43:03.630939+00:00",
        "meta_object_name": "HULIANWANG DIGUI 13E",
        "meta_object_id": "2025-258E",
        "meta_epoch": "2025-12-08T00:16:43.750272",
        "meta_mean_motion": 14.20474956,
        "meta_eccentricity": 0.0007438,
        "meta_inclination": 50.0072,
        "meta_ra_of_asc_node": 281.949,
        "meta_arg_of_pericenter": 344.8233,
        "meta_mean_anomaly": 15.2455,
        "meta_ephemeris_type": 0,
        "meta_classification_type": "U",
        "meta_norad_cat_id": 66416,
        "meta_element_set_no": 999,
        "meta_rev_at_epoch": 398,
        "meta_bstar": 0.00035674733,
        "meta_mean_motion_dot": 6.13e-06,
        "meta_mean_motion_ddot": 0,
        "tle_line1": "1 66416U 25258E   25342.01161748  .00000613  00000+0  35675-3 0  9997",
        "tle_line2": "2 66416  50.0072 281.9490 0007438 344.8233  15.2455 14.20474956  3985"
      },
      "geometry": {
        "type": "Point",
        "coordinates": [
          48.98265026843087,
          42.35122630318996
        ]
      }
    },
    {
      "type": "Feature",
      "properties": {
        "norad_id": 66417,
        "name": "HULIANWANG DIGUI 13F",
        "group": "last-30-days",
        "lat": 37.276675716768054,
        "lon": 59.14570499031553,
        "alt_km": 821.6670860591776,
        "timestamp": "2025-12-08T17:43:03.630950+00:00",
        "meta_object_name": "HULIANWANG DIGUI 13F",
        "meta_object_id": "2025-258F",
        "meta_epoch": "2025-12-08T00:14:13.695936",
        "meta_mean_motion": 14.2063904,
        "meta_eccentricity": 0.00067987,
        "meta_inclination": 50.0011,
        "meta_ra_of_asc_node": 281.9191,
        "meta_arg_of_pericenter": 347.8212,
        "meta_mean_anomaly": 12.2534,
        "meta_ephemeris_type": 0,
        "meta_classification_type": "U",
        "meta_norad_cat_id": 66417,
        "meta_element_set_no": 999,
        "meta_rev_at_epoch": 398,
        "meta_bstar": 0.00031137712,
        "meta_mean_motion_dot": 5.17e-06,
        "meta_mean_motion_ddot": 0,
        "tle_line1": "1 66417U 25258F   25342.00988074  .00000517  00000+0  31138-3 0  9999",
        "tle_line2": "2 66417  50.0011 281.9191 0006798 347.8212  12.2534 14.20639040  3987"
      },
      "geometry": {
        "type": "Point",
        "coordinates": [
          59.14570499031553,
          37.276675716768054
        ]
      }
    }
  ]
}